SENTINEL-3B             
1 43437U 18039A   26064.46754461  .00000179  00000+0  92088-4 0  9994
2 43437  98.6237 133.4629 0000907 127.2558 232.8705 14.26742976409336
GAOFEN-5 01             
1 43461U 18043A   26064.61618804  .00000730  00000+0  16056-3 0  9996
2 43461  98.4460  34.0974 0002779  59.9487 300.1988 14.60518671416576
GAOFEN-6                
1 43484U 18048A   26064.73020322  .00000980  00000+0  14729-3 0  9993
2 43484  97.7880 131.1506 0012929 146.6711 213.5316 14.76587477418123
GAOFEN-11 01            
1 43585U 18063A   26064.74235962  .00019208  00000+0  31920-3 0  9996
2 43585  97.1421 132.0847 0004103  17.0043 343.1346 15.52108498424286
ICESAT-2                
1 43613U 18070A   26064.69827921  .00004354  00000+0  15798-3 0  9993
2 43613  91.9987 263.0949 0003333 129.9884 230.1659 15.28294718416653
HYSIS                   
1 43719U 18096A   26064.74368848  .00001891  00000+0  26520-3 0  9990
2 43719  97.9949 132.2532 0001735 101.9572 258.1834 14.78646764392134
KAZSTSAT                
1 43783U 18099AB  26064.68215096  .00001443  00000+0  12174-3 0  9996
2 43783  97.4407 101.2503 0007021  23.7090 336.4456 14.99610345395797
SAUDISAT 5A             
1 43831U 18102A   26064.79192991  .00008402  00000+0  32040-3 0  9991
2 43831  97.3194 128.3851 0011149 134.7230 225.4919 15.26871887399891
SAUDISAT 5B             
1 43833U 18102C   26064.76450230  .00007695  00000+0  29092-3 0  9999
2 43833  97.3292 131.2434 0011831 137.3069 222.9091 15.27183418400005
GAOFEN-10R              
1 44622U 19066A   26064.78554626  .00002375  00000+0  29779-3 0  9994
2 44622  98.0396  17.6893 0008054 116.7504 243.4534 14.83137574347057
CARTOSAT-3              
1 44804U 19081A   26064.81673595  .00004987  00000+0  24016-3 0  9994
2 44804  97.4424 128.2816 0012831 149.7341 210.4637 15.19137114347778
GAOFEN-12 01            
1 44819U 19082A   26064.73464975  .00000738  00000+0  10335-3 0  9991
2 44819  97.8142  73.8369 0001958  61.3212 298.8197 14.80359807338781
CSG-1                   
1 44873U 19092A   26064.76020513  .00000914  00000+0  12138-3 0  9990
2 44873  97.8863 249.8549 0001309  87.2106 272.9257 14.82167513336157
NEMO-HD                 
1 46277U 20061F   26064.72744081  .00012834  00000+0  29897-3 0  9991
2 46277  97.2049 127.8209 0002533  83.0313 277.1223 15.42394247306025
SENTINEL-6A             
1 46984U 20086A   26064.24452167 -.00000050  00000+0  48802-4 0  9997
2 46984  66.0446 350.9437 0007815 270.8309  89.1811 12.80929583247019
GAOFEN-12 02            
1 48079U 21026A   26064.80231020  .00000747  00000+0  10525-3 0  9996
2 48079  97.9914  63.4218 0004272 193.0131 167.0971 14.80198008266460
PLEIADES NEO 3          
1 48268U 21034A   26064.72587587 -.00000028  00000+0  31064-5 0  9994
2 48268  97.8935 140.9775 0001332  89.7214 270.4151 14.81673866262330
PLEIADES NEO 4          
1 49070U 21073E   26064.75963222 -.00000061  00000+0 -11936-5 0  9990
2 49070  97.8934 141.0065 0001318  90.7905 269.3459 14.81672417246058
LANDSAT 9               
1 49260U 21088A   26064.71206468  .00000573  00000+0  13707-3 0  9997
2 49260  98.1947 136.5624 0001117  90.5282 269.6045 14.57120938235938
CSG-2                   
1 51444U 22008A   26064.79397946  .00000795  00000+0  10645-3 0  9991
2 51444  97.8853 249.8857 0001363  78.4771 281.6595 14.82154028221275
GAOFEN-12 03            
1 52912U 22069A   26064.74302005  .00001628  00000+0  22274-3 0  9993
2 52912  97.8419 315.1580 0002211  96.2437 263.9027 14.79842687199317
SWOT                    
1 54754U 22173A   26064.73687962  .00000036  00000+0  25936-4 0  9993
2 54754  77.6119 174.9556 0000528 269.5993  90.5098 14.00168850164671
GAOFEN-12 04            
1 57654U 23123A   26064.77201624  .00001909  00000+0  25920-3 0  9994
2 57654  97.9131 344.2919 0001690  77.0110 283.1291 14.79990487137334
PARS 1                  
1 59065U 24039Q   26064.79008478  .00015715  00000+0  35387-3 0  9991
2 59065  97.4750  42.6851 0011812 121.9763 238.2634 15.43300962112686
RESURS-P 4              
1 59371U 24061A   26064.76378122  .00005404  00000+0  17256-3 0  9998
2 59371  97.2656  14.4919 0002663  63.2617 296.8898 15.32885314107921
LEGION 1                
1 59625U 24081A   26064.71285745  .00006285  00000+0  31713-3 0  9997
2 59625  97.5078 143.6450 0005396  33.1022 327.0548 15.17465017101853
LEGION 2                
1 59626U 24081B   26064.74927169  .00006180  00000+0  32008-3 0  9996
2 59626  97.5080 143.7637 0010563 359.2689   0.8526 15.16517830101861
ALOS-4 (DAICHI-4)       
1 60182U 24123A   26064.74789163  .00000869  00000+0  12322-3 0  9997
2 60182  97.9196 163.4045 0001507 102.1213 258.0168 14.79466114 90581
LEGION 3                
1 60452U 24146A   26064.78995406  .00007314  00000+0  38578-3 0  9998
2 60452  45.0007 224.8296 0013759 299.2421  60.7082 15.16098314 86333
LEGION 4                
1 60453U 24146B   26064.72235596  .00006642  00000+0  35144-3 0  9999
2 60453  45.0034 317.0435 0009396  79.6013 280.5924 15.16154075 85178
SENTINEL-2C             
1 60989U 24157A   26064.67604872  .00000191  00000+0  89398-4 0  9990
2 60989  98.5682 140.9431 0000993 106.4018 253.7274 14.30810321 78182
IONOSFERA-M 1           
1 61735U 24199A   26064.74365263  .00000095  00000+0  62009-4 0  9995
2 61735  98.7333 298.9225 0002102  81.6491 278.4925 14.22734474112995
IONOSFERA-M 2           
1 61736U 24199B   26064.77815949  .00000108  00000+0  68049-4 0  9995
2 61736  98.7331 298.8682 0000219  87.8444 272.2759 14.22736943116122
BIOMASS                 
1 63772U 25090A   26064.53002365  .00000449  00000+0  87572-4 0  9992
2 63772  98.0739 253.3392 0001206  85.6760 274.4582 14.67534153 45483
GOSAT-GW (IBUKI GW)     
1 64694U 25141A   26064.75897976  .00001420  00000+0  25870-3 0  9999
2 64694  98.0501   3.8001 0001434  83.5830 276.5538 14.67568736 36676
IONOSFERA-M 3           
1 64876U 25155A   26064.77367236  .00000112  00000+0  70965-4 0  9992
2 64876  98.5917  29.3464 0001965 124.1730 235.9634 14.21465362 31717
IONOSFERA-M 4           
1 64877U 25155B   26064.80865685  .00000116  00000+0  72495-4 0  9992
2 64877  98.5913  29.2990 0001606 107.0225 253.1129 14.21467116 31718
MICROCARB               
1 64899U 25156A   26064.70932109  .00000985  00000+0  16388-3 0  9994
2 64899  97.9892 143.6804 0015244 240.7773 119.1910 14.72195717 32746
CO3D 3                  
1 64900U 25156B   26064.64839190  .00008122  00000+0  37784-3 0  9990
2 64900  97.4329 144.8275 0001506 153.0630 207.0684 15.20209195 33801
CO3D 4                  
1 64901U 25156C   26061.29158243  .00001237  00000+0  60250-4 0  9997
2 64901  97.4334 141.5187 0000254 280.3117  79.8089 15.20203154 33293
CO3D 2                  
1 64902U 25156D   26064.74684696  .00006993  00000+0  32591-3 0  9997
2 64902  97.4332 144.8237 0001406 128.8746 231.2615 15.20197351 33816
CO3D 1                  
1 64903U 25156E   26064.74700060  .00005717  00000+0  26700-3 0  9990
2 64903  97.4329 144.8235 0001237 136.2342 223.8991 15.20200667 33817
SENTINEL-6B             
1 66514U 25264A   26064.71331394 -.00000043  00000+0  77165-4 0  9997
2 66514  66.0447 350.0962 0007976 270.7026  89.3075 12.80929392 13910
CSG-3                   
1 67304U 26001A   26064.77286834  .00000672  00000+0  90943-4 0  9995
2 67304  97.8863 249.8672 0001354  90.6392 269.4976 14.82168148  9143
